NORAD_CAT_ID,OBJECT_NAME,OBJECT_TYPE,EPOCH,MEAN_MOTION,ECCENTRICITY,INCLINATION,RA_OF_ASC_NODE,ARG_OF_PERICENTER,MEAN_ANOMALY,BSTAR,MEAN_MOTION_DOT,MEAN_MOTION_DDOT,TLE_LINE0,TLE_LINE1,TLE_LINE2,SEMIMAJOR_AXIS,PERIOD,APOGEE,PERIGEE,DECAYED
52273.0,STARLINK-3782,PAYLOAD,2022-07-07 20:06:59,15.25393615,0.0001325,53.2149,358.9776,87.6439,272.4713,-0.0085778,-0.00213523,0.0,0 STARLINK-3782,1 52273U 22041N   22188.83819291 -.00213523  00000-0 -85778-2 0  9995,2 52273  53.2149 358.9776 0001325  87.6439 272.4713 15.25393615 12074,6867.741,94.402,490.516,488.696,0.0
52273.0,STARLINK-3782,PAYLOAD,2022-07-08 14:00:01,15.2304355,0.0001413,53.2177,355.545,65.7,66.9283,-0.032583,-0.00724427,0.0,0 STARLINK-3782,1 52273U 22041N   22189.58334491 -.00724427  00000-0 -32583-1 0  9997,2 52273  53.2177 355.5450 0001413  65.7000  66.9283 15.23043550  1306,6874.804,94.548,497.64,495.697,0.0
52273.0,STARLINK-3782,PAYLOAD,2022-07-08 22:00:01,15.225292800000002,0.0001355,53.2174,354.0173,75.4772,85.5665,-0.032706,-0.00716662,0.0,0 STARLINK-3782,1 52273U 22041N   22189.91668981 -.00716662  00000-0 -32706-1 0  9997,2 52273  53.2174 354.0173 0001355  75.4772  85.5665 15.22529280 13467,6876.352,94.579,499.148,497.285,0.0
52273.0,STARLINK-3782,PAYLOAD,2022-07-09 14:00:01,15.21512383,0.0001448,53.2177,350.9621,67.4465,148.3974,-0.033977,-0.00722049,0.0,0 STARLINK-3782,1 52273U 22041N   22190.58334491 -.00722049  00000-0 -33977-1 0  9995,2 52273  53.2177 350.9621 0001448  67.4465 148.3974 15.21512383  1302,6879.415,94.643,502.276,500.284,0.0
52273.0,STARLINK-3782,PAYLOAD,2022-07-09 20:00:01,15.2112994,0.000137,53.2176,349.8191,77.8198,67.9655,-0.034365,-0.0072209,0.0,0 STARLINK-3782,1 52273U 22041N   22190.83334491 -.00722090  00000-0 -34365-1 0  9991,2 52273  53.2176 349.8191 0001370  77.8198  67.9655 15.21129940 13603,6880.568,94.666,503.376,501.49,0.0
52273.0,STARLINK-3782,PAYLOAD,2022-07-10 14:00:01,15.199825400000002,0.0001351999999999,53.2176,346.3899,70.092,223.4519,-0.035526,-0.0072177,0.0,0 STARLINK-3782,1 52273U 22041N   22191.58334491 -.00721770  00000-0 -35526-1 0  9998,2 52273  53.2176 346.3899 0001352  70.0920 223.4519 15.19982540  1300,6884.03,94.738,506.826,504.965,0.0
52273.0,STARLINK-3782,PAYLOAD,2022-07-10 22:00:00,15.19472226,0.000122,53.2172,344.869,91.9322,226.2857,-0.035988,-0.00720414,0.0,0 STARLINK-3782,1 52273U 22041N   22191.91667824 -.00720414  00000-0 -35988-1 0  9990,2 52273  53.2172 344.8690 0001220  91.9322 226.2857 15.19472226 13764,6885.571999999999,94.77,508.277,506.597,0.0
52273.0,STARLINK-3782,PAYLOAD,2022-07-11 14:00:01,15.1845334,0.0001274,53.2177,341.8283,70.6852,295.0436,-0.037207,-0.00722884,0.0,0 STARLINK-3782,1 52273U 22041N   22192.58334491 -.00722884  00000-0 -37207-1 0  9994,2 52273  53.2177 341.8283 0001274  70.6852 295.0436 15.18453340  1304,6888.651,94.833,511.394,509.639,0.0
52273.0,STARLINK-3782,PAYLOAD,2022-07-11 22:00:00,15.17942796,0.0001184,53.2172,340.3109,87.6978,300.8667,-0.03766,-0.00721063,0.0,0 STARLINK-3782,1 52273U 22041N   22192.91667824 -.00721063  00000-0 -37660-1 0  9991,2 52273  53.2172 340.3109 0001184  87.6978 300.8667 15.17942796 13915,6890.196,94.865,512.877,511.245,0.0
52273.0,STARLINK-3782,PAYLOAD,2022-07-12 14:00:01,15.16923276,0.0001344,53.2176,337.2776,67.0183,5.3807,-0.038892,-0.00722949,0.0,0 STARLINK-3782,1 52273U 22041N   22193.58334491 -.00722949  00000-0 -38892-1 0  9998,2 52273  53.2176 337.2776 0001344  67.0183   5.3807 15.16923276  1306,6893.283,94.929,516.0740000000002,514.221,0.0
52273.0,STARLINK-3782,PAYLOAD,2022-07-12 22:00:00,15.16412521,0.0001245,53.2172,335.7634,89.4545,3.942,-0.039327,-0.0072055,0.0,0 STARLINK-3782,1 52273U 22041N   22193.91667824 -.00720550  00000-0 -39327-1 0  9994,2 52273  53.2172 335.7634 0001245  89.4545   3.9420 15.16412521 14077,6894.831,94.961,517.554,515.837,0.0
52273.0,STARLINK-3782,PAYLOAD,2022-07-13 14:00:01,15.15392351,0.0001414,53.2175,332.7373,70.3323,63.2221,-0.040548,-0.00721506,0.0,0 STARLINK-3782,1 52273U 22041N   22194.58334491 -.00721506  00000-0 -40548-1 0  9998,2 52273  53.2175 332.7373 0001414  70.3323  63.2221 15.15392351  1305,6897.925,95.025,520.765,518.814,0.0
52273.0,STARLINK-3782,PAYLOAD,2022-07-13 22:00:00,15.14882814,0.0001332,53.2172,331.2266,86.9752,65.738,-0.041122,-0.00721191,0.0,0 STARLINK-3782,1 52273U 22041N   22194.91667824 -.00721191  00000-0 -41122-1 0  9993,2 52273  53.2172 331.2266 0001332  86.9752  65.7380 15.14882814 14220,6899.471,95.057,522.255,520.4169999999998,0.0
52273.0,STARLINK-3782,PAYLOAD,2022-07-14 14:00:01,15.13861407,0.0001446,53.2175,328.2079,73.2052,115.9894,-0.042242,-0.00719794,0.0,0 STARLINK-3782,1 52273U 22041N   22195.58334491 -.00719794  00000-0 -42242-1 0  9998,2 52273  53.2175 328.2079 0001446  73.2052 115.9894 15.13861407  1306,6902.574000000001,95.121,525.438,523.441,0.0
52273.0,STARLINK-3782,PAYLOAD,2022-07-14 22:00:00,15.13353729,0.0001365,53.2172,326.7006,87.7093,118.8054,-0.043055,-0.00722964,0.0,0 STARLINK-3782,1 52273U 22041N   22195.91667824 -.00722964  00000-0 -43055-1 0  9990,2 52273  53.2172 326.7006 0001365  87.7093 118.8054 15.13353729 14375,6904.118,95.153,526.925,525.0409999999998,0.0
52273.0,STARLINK-3782,PAYLOAD,2022-07-15 14:00:01,15.12331089,0.0001440999999999,53.2175,323.6891,74.1515,165.1679,-0.044047,-0.00718951,0.0,0 STARLINK-3782,1 52273U 22041N   22196.58334491 -.00718951  00000-0 -44047-1 0  9998,2 52273  53.2175 323.6891 0001441  74.1515 165.1679 15.12331089  1301,6907.23,95.217,530.09,528.1,0.0
52273.0,STARLINK-3782,PAYLOAD,2022-07-15 22:00:00,15.11824751,0.0001344,53.2172,322.1852,95.2602,159.5406,-0.04507,-0.00724848,0.0,0 STARLINK-3782,1 52273U 22041N   22196.91667824 -.00724848  00000-0 -45070-1 0  9993,2 52273  53.2172 322.1852 0001344  95.2602 159.5406 15.11824751  1309,6908.772,95.249,531.566,529.7090000000002,0.0
52273.0,STARLINK-3782,PAYLOAD,2022-07-16 06:00:00,15.11312122,0.0001338,53.2173,320.6808,87.3827,182.2901,-0.045475,-0.00721228,0.0,0 STARLINK-3782,1 52273U 22041N   22197.25001157 -.00721228  00000-0 -45475-1 0  9990,2 52273  53.2173 320.6808 0001338  87.3827 182.2901 15.11312122 14578,6910.334,95.281,533.124,531.275,0.0
52273.0,STARLINK-3782,PAYLOAD,2022-07-16 14:00:01,15.10801586,0.0001385,53.2174,319.181,74.7884,209.1404,-0.046003,-0.00719436,0.0,0 STARLINK-3782,1 52273U 22041N   22197.58334491 -.00719436  00000-0 -46003-1 0  9992,2 52273  53.2174 319.1810 0001385  74.7884 209.1404 15.10801586  1300,6911.891,95.314,534.7130000000002,532.799,0.0
52273.0,STARLINK-3782,PAYLOAD,2022-07-16 22:00:00,15.10295263,0.0001278,53.2172,317.6805,86.4473,211.1247,-0.047093,-0.00725723,0.0,0 STARLINK-3782,1 52273U 22041N   22197.91667824 -.00725723  00000-0 -47093-1 0  9994,2 52273  53.2172 317.6805 0001278  86.4473 211.1247 15.10295263  1307,6913.436,95.346,536.184,534.4169999999998,0.0
52273.0,STARLINK-3782,PAYLOAD,2022-07-17 14:00:01,15.09193915,0.0001523,53.2173,314.6835,76.275,246.7576,-0.026142,-0.00397789,0.0,0 STARLINK-3782,1 52273U 22041N   22198.58334491 -.00397789  00000-0 -26142-1 0  9998,2 52273  53.2173 314.6835 0001523  76.2750 246.7576 15.09193915 14779,6916.799,95.415,539.717,537.61,0.0
52273.0,STARLINK-3782,PAYLOAD,2022-07-17 22:00:00,15.08840249,0.0001447,53.2172,313.1863,76.3217,258.5735,-0.00048912,-8.064e-05,0.0,0 STARLINK-3782,1 52273U 22041N   22198.91667824 -.00008064  00000-0 -48912-3 0  9990,2 52273  53.2172 313.1863 0001447  76.3217 258.5735 15.08840249 14829,6917.88,95.438,540.746,538.744,0.0
52273.0,STARLINK-3782,PAYLOAD,2022-07-18 06:00:00,15.08791752,0.0001085,53.2145,311.6891,78.3409,268.0705,0.0075591,0.00121943,0.0,0 STARLINK-3782,1 52273U 22041N   22199.25001157  .00121943  00000-0  75591-2 0  9991,2 52273  53.2145 311.6891 0001085  78.3409 268.0705 15.08791752 14878,6918.028,95.441,540.643,539.1419999999998,0.0
52273.0,STARLINK-3782,PAYLOAD,2022-07-18 14:00:01,15.08871824,0.0001123,53.2141,310.1951,64.3796,293.6348,-0.0020294,-0.00032468,0.0,0 STARLINK-3782,1 52273U 22041N   22199.58334491 -.00032468  00000-0 -20294-2 0  9992,2 52273  53.2141 310.1951 0001123  64.3796 293.6348 15.08871824 14924,6917.783,95.436,540.425,538.871,0.0
52273.0,STARLINK-3782,PAYLOAD,2022-07-18 22:00:00,15.08858229,0.0001149,53.2144,308.6979,62.62,307.0156,-0.0028158,-0.00044844,0.0,0 STARLINK-3782,1 52273U 22041N   22199.91667824 -.00044844  00000-0 -28158-2 0  9996,2 52273  53.2144 308.6979 0001149  62.6200 307.0156 15.08858229  1307,6917.825,95.436,540.485,538.895,0.0
52273.0,STARLINK-3782,PAYLOAD,2022-07-19 06:00:00,15.08829758,0.0001137,53.2142,307.2003,74.6689,306.5853,0.003125,0.00049784,0.0,0 STARLINK-3782,1 52273U 22041N   22200.25001157  .00049784  00000-0  31250-2 0  9990,2 52273  53.2142 307.2003 0001137  74.6689 306.5853 15.08829758 15026,6917.9119999999975,95.438,540.563,538.99,0.0
52273.0,STARLINK-3782,PAYLOAD,2022-07-19 14:00:01,15.08869938,0.0001286999999999,53.2142,305.7055,65.6033,327.2485,-0.0026649,-0.00042484,0.0,0 STARLINK-3782,1 52273U 22041N   22200.58334491 -.00042484  00000-0 -26649-2 0  9994,2 52273  53.2142 305.7055 0001287  65.6033 327.2485 15.08869938  1306,6917.7890000000025,95.436,540.544,538.764,0.0
52273.0,STARLINK-3782,PAYLOAD,2022-07-19 22:00:00,15.08870767,0.0001283,53.215,304.2083,62.6863,341.7814,-0.0044756,-0.00070875,0.0,0 STARLINK-3782,1 52273U 22041N   22200.91667824 -.00070875  00000-0 -44756-2 0  9994,2 52273  53.2150 304.2083 0001283  62.6863 341.7814 15.08870767 15139,6917.786,95.436,540.539,538.764,0.0
52273.0,STARLINK-3782,PAYLOAD,2022-07-20 14:00:01,15.08862918,0.0001501,53.2142,301.2159,68.7394,358.9564,-0.0020337,-0.00032529,0.0,0 STARLINK-3782,1 52273U 22041N   22201.58334491 -.00032529  00000-0 -20337-2 0  9992,2 52273  53.2142 301.2159 0001501  68.7394 358.9564 15.08862918  1305,6917.81,95.436,540.714,538.637,0.0
